Starlink-550 47
1 00245U 00000ABC 00001.00000000  .00000000  00000-0  00000+0 0    04
2 00245  53.0000  55.0000 0000001   0.0000  40.9091 15.19000000    01